{
  "norad_id": 67461,
  "name": "STARLINK-36522",
  "history": [
    {
      "epoch": "2026-03-28T17:26:39.310368Z",
      "apogee_km": 483.7507257303341,
      "perigee_km": 482.3220922031178,
      "latitude_deg": -5.554965927940108e-05,
      "longitude_deg": 9.910101693130253,
      "height_km": 482.69909340711007,
      "semi_major_axis_km": 6861.173408966725,
      "eccentricity": 0.00010411,
      "inclination_deg": 43.0008,
      "raan_deg": 97.7171,
      "arg_perigee_deg": 279.1679,
      "mean_anomaly_deg": 80.9054,
      "mean_motion_rev_day": 15.27584237
    },
    {
      "epoch": "2026-03-29T01:17:26.242944Z",
      "apogee_km": 483.2318107075198,
      "perigee_km": 482.75015952296417,
      "latitude_deg": 3.100424420196052e-06,
      "longitude_deg": -109.95322721273594,
      "height_km": 482.6340943980547,
      "semi_major_axis_km": 6861.127985115241,
      "eccentricity": 3.51e-05,
      "inclination_deg": 42.9984,
      "raan_deg": 95.8715,
      "arg_perigee_deg": 303.3602,
      "mean_anomaly_deg": 56.7216,
      "mean_motion_rev_day": 15.27599407
    },
    {
      "epoch": "2026-03-30T00:49:46.707168Z",
      "apogee_km": 483.44319748781527,
      "perigee_km": 482.57869284672506,
      "latitude_deg": 3.8192833894645674e-05,
      "longitude_deg": -109.54456997928962,
      "height_km": 482.7709998171709,
      "semi_major_axis_km": 6861.14794516727,
      "eccentricity": 6.3e-05,
      "inclination_deg": 42.9994,
      "raan_deg": 90.3321,
      "arg_perigee_deg": 272.1078,
      "mean_anomaly_deg": 87.9702,
      "mean_motion_rev_day": 15.27592741
    },
    {
      "epoch": "2026-03-30T07:06:24.185664Z",
      "apogee_km": 483.67294152969953,
      "perigee_km": 482.37069358612735,
      "latitude_deg": -2.2764185060059796e-05,
      "longitude_deg": 154.5631145085625,
      "height_km": 482.6907723844963,
      "semi_major_axis_km": 6861.158817557914,
      "eccentricity": 9.49e-05,
      "inclination_deg": 43.0007,
      "raan_deg": 88.8538,
      "arg_perigee_deg": 279.4979,
      "mean_anomaly_deg": 80.5765,
      "mean_motion_rev_day": 15.2758911
    },
    {
      "epoch": "2026-03-30T07:06:24.186528Z",
      "apogee_km": 483.67314736446406,
      "perigee_km": 482.3704877513628,
      "latitude_deg": -2.0440419402793837e-05,
      "longitude_deg": 154.5631133768128,
      "height_km": 482.6907384245361,
      "semi_major_axis_km": 6861.158817557914,
      "eccentricity": 9.493e-05,
      "inclination_deg": 43.0007,
      "raan_deg": 88.8538,
      "arg_perigee_deg": 279.4979,
      "mean_anomaly_deg": 80.5765,
      "mean_motion_rev_day": 15.2758911
    },
    {
      "epoch": "2026-03-30T16:31:20.695008Z",
      "apogee_km": 483.68992408575286,
      "perigee_km": 482.2929983310505,
      "latitude_deg": 4.434447667071626e-05,
      "longitude_deg": 10.72554199120195,
      "height_km": 482.62612538180514,
      "semi_major_axis_km": 6861.128461208402,
      "eccentricity": 0.0001018,
      "inclination_deg": 43.0004,
      "raan_deg": 86.6383,
      "arg_perigee_deg": 281.7093,
      "mean_anomaly_deg": 78.3645,
      "mean_motion_rev_day": 15.27599248
    },
    {
      "epoch": "2026-03-31T08:12:54.685440Z",
      "apogee_km": 483.91778824510766,
      "perigee_km": 482.1544667513408,
      "latitude_deg": 3.827923771194654e-06,
      "longitude_deg": 130.9964934503788,
      "height_km": 482.73189104782267,
      "semi_major_axis_km": 6861.173127498224,
      "eccentricity": 0.0001285,
      "inclination_deg": 42.9996,
      "raan_deg": 82.9454,
      "arg_perigee_deg": 275.2585,
      "mean_anomaly_deg": 84.812,
      "mean_motion_rev_day": 15.27584331
    },
    {
      "epoch": "2026-04-01T15:36:03.019680Z",
      "apogee_km": 483.1658178439975,
      "perigee_km": 482.9092099171776,
      "latitude_deg": 1.7897804877147673e-05,
      "longitude_deg": 11.537321404070045,
      "height_km": 482.7257914181495,
      "semi_major_axis_km": 6861.174513880587,
      "eccentricity": 1.87e-05,
      "inclination_deg": 42.996,
      "raan_deg": 75.5599,
      "arg_perigee_deg": 312.5926,
      "mean_anomaly_deg": 47.491,
      "mean_motion_rev_day": 15.27583868
    },
    {
      "epoch": "2026-04-02T15:08:23.367264Z",
      "apogee_km": 483.4616249213541,
      "perigee_km": 482.5215130848301,
      "latitude_deg": -9.168308180709748e-06,
      "longitude_deg": 11.944100028127957,
      "height_km": 482.7738425951186,
      "semi_major_axis_km": 6861.128569003092,
      "eccentricity": 6.851e-05,
      "inclination_deg": 43.0019,
      "raan_deg": 70.0182,
      "arg_perigee_deg": 269.27,
      "mean_anomaly_deg": 90.8073,
      "mean_motion_rev_day": 15.27599212
    },
    {
      "epoch": "2026-04-03T05:15:47.303136Z",
      "apogee_km": 483.94610627322345,
      "perigee_km": 481.9119374190668,
      "latitude_deg": 5.795892595649043e-05,
      "longitude_deg": 156.1923150997133,
      "height_km": 482.776691335986,
      "semi_major_axis_km": 6861.066021846145,
      "eccentricity": 0.00014824,
      "inclination_deg": 42.9992,
      "raan_deg": 66.6961,
      "arg_perigee_deg": 265.9964,
      "mean_anomaly_deg": 94.0719,
      "mean_motion_rev_day": 15.27620101
    },
    {
      "epoch": "2026-04-04T14:13:05.678112Z",
      "apogee_km": 483.75994509408247,
      "perigee_km": 482.36163298467636,
      "latitude_deg": 1.040555422705209e-06,
      "longitude_deg": 12.760073339816827,
      "height_km": 482.7378074825408,
      "semi_major_axis_km": 6861.197789039379,
      "eccentricity": 0.0001019,
      "inclination_deg": 42.9997,
      "raan_deg": 58.9439,
      "arg_perigee_deg": 278.1677,
      "mean_anomaly_deg": 81.9059,
      "mean_motion_rev_day": 15.27576095
    },
    {
      "epoch": "2026-04-05T13:45:26.254656Z",
      "apogee_km": 483.3593319290785,
      "perigee_km": 482.61146958739573,
      "latitude_deg": 2.0657601930432194e-05,
      "longitude_deg": 13.168142851749366,
      "height_km": 482.8431748976237,
      "semi_major_axis_km": 6861.122400758237,
      "eccentricity": 5.45e-05,
      "inclination_deg": 43.0014,
      "raan_deg": 53.4044,
      "arg_perigee_deg": 257.3792,
      "mean_anomaly_deg": 102.6999,
      "mean_motion_rev_day": 15.27601272
    },
    {
      "epoch": "2026-04-05T13:45:26.255520Z",
      "apogee_km": 483.35919470663066,
      "perigee_km": 482.6116068098436,
      "latitude_deg": 1.9123606289933053e-05,
      "longitude_deg": 13.16813760605338,
      "height_km": 482.8431449188796,
      "semi_major_axis_km": 6861.122400758237,
      "eccentricity": 5.448e-05,
      "inclination_deg": 43.0014,
      "raan_deg": 53.4044,
      "arg_perigee_deg": 257.3792,
      "mean_anomaly_deg": 102.6999,
      "mean_motion_rev_day": 15.27601272
    },
    {
      "epoch": "2026-04-06T05:27:00.664128Z",
      "apogee_km": 484.19634605516785,
      "perigee_km": 482.0935003713421,
      "latitude_deg": -2.7760166630400743e-05,
      "longitude_deg": 133.43743293617868,
      "height_km": 482.84773338933564,
      "semi_major_axis_km": 6861.281923213255,
      "eccentricity": 0.00015324,
      "inclination_deg": 43.0,
      "raan_deg": 49.7116,
      "arg_perigee_deg": 274.0366,
      "mean_anomaly_deg": 86.031,
      "mean_motion_rev_day": 15.27547998
    },
    {
      "epoch": "2026-04-07T12:50:09.026016Z",
      "apogee_km": 483.83969006911866,
      "perigee_km": 482.0997134095569,
      "latitude_deg": 5.137519931103647e-05,
      "longitude_deg": 13.978409547187733,
      "height_km": 483.02879076305453,
      "semi_major_axis_km": 6861.106701739337,
      "eccentricity": 0.0001268,
      "inclination_deg": 43.0013,
      "raan_deg": 42.3263,
      "arg_perigee_deg": 251.0544,
      "mean_anomaly_deg": 109.0171,
      "mean_motion_rev_day": 15.27606515
    },
    {
      "epoch": "2026-04-08T12:22:28.050816Z",
      "apogee_km": 484.76077040637574,
      "perigee_km": 481.05196480358336,
      "latitude_deg": -1.0902869647005231e-05,
      "longitude_deg": 14.394873486179668,
      "height_km": 482.7594752106663,
      "semi_major_axis_km": 6861.043367604979,
      "eccentricity": 0.00027028,
      "inclination_deg": 42.9996,
      "raan_deg": 36.7888,
      "arg_perigee_deg": 267.6665,
      "mean_anomaly_deg": 92.3877,
      "mean_motion_rev_day": 15.27627667
    }
  ]
}